EAGLET-I                
1 43790U 18099AJ  26068.68676861  .00006017  00000+0  35262-3 0  9994
2 43790  97.4369 120.9821 0010486 336.8524  23.2233 15.12108144397298
STARLINK-4610           
1 53610U 22104Y   26068.69220181 -.00000337  00000+0 -30827-5 0  9994
2 53610  53.2172 234.2353 0001225  91.6869 268.4263 15.08834911195633
